start=new Date('2022-01-22T00:00:00.000Z').valueOf();
sats=[{"GP_ID":"194337201","CLASSIFICATION_TYPE":"U","EPHEMERIS_TYPE":"0","RCS_SIZE":"LARGE","PERIAPSIS":"364.355","ELEMENT_SET_NO":"999","PERIOD":"91.880","APOAPSIS":"369.106","REF_FRAME":"TEME","TLE_LINE2":"2 49172  69.9999 121.9708 0003522 271.8980  77.7792 15.67266235 20465","MEAN_MOTION":"15.67266235","BSTAR":"-0.00663750000000","OBJECT_ID":"2021-082AU","SEMIMAJOR_AXIS":"6744.866","REV_AT_EPOCH":"2046","COUNTRY_CODE":"US","MEAN_ELEMENT_THEORY":"SGP4","ARG_OF_PERICENTER":"271.8980","NORAD_CAT_ID":"49172","MEAN_ANOMALY":"77.7792","SITE":"AFWTR","EPOCH":"2022-01-21T22:00:00.999936","OBJECT_NAME":"STARLINK-3091","MEAN_MOTION_DOT":"-0.00661922","MEAN_MOTION_DDOT":"0.0000000000000","ECCENTRICITY":"0.00035220","TLE_LINE1":"1 49172U 21082AU  22021.91667824 -.00661922  00000-0 -66375-2 0  9993","RA_OF_ASC_NODE":"121.9708","TIME_SYSTEM":"UTC","CENTER_NAME":"EARTH","OBJECT_TYPE":"PAYLOAD","LAUNCH_DATE":"2021-09-14","FILE":"3279546","DECAY_DATE":null,"INCLINATION":"69.9999"},{"MEAN_MOTION_DOT":"-0.00658426","OBJECT_NAME":"STARLINK-3045","EPOCH":"2022-01-21T14:00:01.000224","INCLINATION":"70.0001","DECAY_DATE":null,"TIME_SYSTEM":"UTC","OBJECT_TYPE":"PAYLOAD","CENTER_NAME":"EARTH","LAUNCH_DATE":"2021-09-14","FILE":"3279196","MEAN_MOTION_DDOT":"0.0000000000000","ECCENTRICITY":"0.00037020","TLE_LINE1":"1 49173U 21082AV  22021.58334491 -.00658426  00000-0 -64857-2 0  9996","RA_OF_ASC_NODE":"122.6066","REF_FRAME":"TEME","APOAPSIS":"368.007","TLE_LINE2":"2 49173  70.0001 122.6066 0003702 290.6678 244.8028 15.67691680 20422","MEAN_MOTION":"15.67691680","BSTAR":"-0.00648570000000","PERIAPSIS":"363.014","RCS_SIZE":"LARGE","ELEMENT_SET_NO":"999","PERIOD":"91.855","GP_ID":"194304379","CLASSIFICATION_TYPE":"U","EPHEMERIS_TYPE":"0","MEAN_ELEMENT_THEORY":"SGP4","COUNTRY_CODE":"US","ARG_OF_PERICENTER":"290.6678","NORAD_CAT_ID":"49173","SITE":"AFWTR","MEAN_ANOMALY":"244.8028","REV_AT_EPOCH":"2042","OBJECT_ID":"2021-082AV","SEMIMAJOR_AXIS":"6743.646"},{"TLE_LINE2":"2 49174  70.0002 122.9108 0004031 295.7979 334.1126 15.69257630 21585","REF_FRAME":"TEME","APOAPSIS":"363.740","BSTAR":"-0.00608990000000","MEAN_MOTION":"15.69257630","PERIAPSIS":"358.307","RCS_SIZE":"LARGE","PERIOD":"91.763","ELEMENT_SET_NO":"999","EPHEMERIS_TYPE":"0","GP_ID":"194304386","CLASSIFICATION_TYPE":"U","COUNTRY_CODE":"US","NORAD_CAT_ID":"49174","MEAN_ELEMENT_THEORY":"SGP4","ARG_OF_PERICENTER":"295.7979","SITE":"AFWTR","MEAN_ANOMALY":"334.1126","REV_AT_EPOCH":"2158","OBJECT_ID":"2021-082AW","SEMIMAJOR_AXIS":"6739.159","MEAN_MOTION_DOT":"-0.00659391","EPOCH":"2022-01-21T14:00:01.000224","OBJECT_NAME":"STARLINK-3047","INCLINATION":"70.0002","DECAY_DATE":null,"TIME_SYSTEM":"UTC","LAUNCH_DATE":"2021-09-14","FILE":"3279196","CENTER_NAME":"EARTH","OBJECT_TYPE":"PAYLOAD","ECCENTRICITY":"0.00040310","MEAN_MOTION_DDOT":"0.0000000000000","TLE_LINE1":"1 49174U 21082AW  22021.58334491 -.00659391  00000-0 -60899-2 0  9991","RA_OF_ASC_NODE":"122.9108"},{"CLASSIFICATION_TYPE":"U","GP_ID":"194336122","EPHEMERIS_TYPE":"0","MEAN_MOTION":"15.67749106","BSTAR":"-0.00650820000000","APOAPSIS":"367.728","REF_FRAME":"TEME","TLE_LINE2":"2 49175  69.9999 121.9698 0003532 272.8412  81.7410 15.67749106 20463","ELEMENT_SET_NO":"999","PERIOD":"91.851","RCS_SIZE":"LARGE","PERIAPSIS":"362.964","SEMIMAJOR_AXIS":"6743.481","OBJECT_ID":"2021-082AX","SITE":"AFWTR","MEAN_ANOMALY":"81.7410","COUNTRY_CODE":"US","NORAD_CAT_ID":"49175","MEAN_ELEMENT_THEORY":"SGP4","ARG_OF_PERICENTER":"272.8412","REV_AT_EPOCH":"2046","MEAN_MOTION_DOT":"-0.00661937","OBJECT_NAME":"STARLINK-3087","EPOCH":"2022-01-21T22:00:00.999936","TLE_LINE1":"1 49175U 21082AX  22021.91667824 -.00661937  00000-0 -65082-2 0  9996","RA_OF_ASC_NODE":"121.9698","MEAN_MOTION_DDOT":"0.0000000000000","ECCENTRICITY":"0.00035320","INCLINATION":"69.9999","DECAY_DATE":null,"OBJECT_TYPE":"PAYLOAD","CENTER_NAME":"EARTH","LAUNCH_DATE":"2021-09-14","FILE":"3279500","TIME_SYSTEM":"UTC"},{"MEAN_MOTION_DOT":"0.00041344","EPOCH":"2022-01-21T14:00:01.000224","OBJECT_NAME":"STARLINK-3069","INCLINATION":"70.0012","DECAY_DATE":null,"OBJECT_TYPE":"PAYLOAD","CENTER_NAME":"EARTH","FILE":"3279324","LAUNCH_DATE":"2021-09-14","TIME_SYSTEM":"UTC","RA_OF_ASC_NODE":"122.8836","TLE_LINE1":"1 49176U 21082AY  22021.58334491  .00041344  00000-0  34701-3 0  9998","MEAN_MOTION_DDOT":"0.0000000000000","ECCENTRICITY":"0.00040420","MEAN_MOTION":"15.69703626","BSTAR":"0.00034701000000","APOAPSIS":"362.470","REF_FRAME":"TEME","TLE_LINE2":"2 49176  70.0012 122.8836 0004042 292.0566 353.1220 15.69703626  3698","ELEMENT_SET_NO":"999","PERIOD":"91.737","PERIAPSIS":"357.024","RCS_SIZE":"LARGE","CLASSIFICATION_TYPE":"U","GP_ID":"194331172","EPHEMERIS_TYPE":"0","MEAN_ANOMALY":"353.1220","SITE":"AFWTR","COUNTRY_CODE":"US","MEAN_ELEMENT_THEORY":"SGP4","NORAD_CAT_ID":"49176","ARG_OF_PERICENTER":"292.0566","REV_AT_EPOCH":"369","OBJECT_ID":"2021-082AY","SEMIMAJOR_AXIS":"6737.882"},{"FILE":"3279324","LAUNCH_DATE":"2021-09-14","OBJECT_TYPE":"PAYLOAD","CENTER_NAME":"EARTH","TIME_SYSTEM":"UTC","INCLINATION":"70.0006","DECAY_DATE":null,"TLE_LINE1":"1 49177U 21082AZ  22021.58334491  .00039943  00000-0  33500-3 0  9997","RA_OF_ASC_NODE":"122.8904","ECCENTRICITY":"0.00039600","MEAN_MOTION_DDOT":"0.0000000000000","EPOCH":"2022-01-21T14:00:01.000224","OBJECT_NAME":"STARLINK-3103","MEAN_MOTION_DOT":"0.00039943","REV_AT_EPOCH":"369","SITE":"AFWTR","MEAN_ANOMALY":"346.5195","COUNTRY_CODE":"US","MEAN_ELEMENT_THEORY":"SGP4","NORAD_CAT_ID":"49177","ARG_OF_PERICENTER":"292.3718","OBJECT_ID":"2021-082AZ","SEMIMAJOR_AXIS":"6737.804","PERIOD":"91.735","ELEMENT_SET_NO":"999","PERIAPSIS":"357.001","RCS_SIZE":"LARGE","BSTAR":"0.00033500000000","MEAN_MOTION":"15.69730945","TLE_LINE2":"2 49177  70.0006 122.8904 0003960 292.3718 346.5195 15.69730945  3699","APOAPSIS":"362.337","REF_FRAME":"TEME","EPHEMERIS_TYPE":"0","CLASSIFICATION_TYPE":"U","GP_ID":"194330422"},{"MEAN_MOTION_DOT":"-0.00004716","OBJECT_NAME":"STARLINK-3086","EPOCH":"2022-01-21T14:00:01.000224","MEAN_MOTION_DDOT":"0.0000000000000","ECCENTRICITY":"0.00038010","RA_OF_ASC_NODE":"136.9312","TLE_LINE1":"1 49178U 21082BA  22021.58334491 -.00004716  00000-0 -38768-3 0  9991","INCLINATION":"69.9975","DECAY_DATE":null,"TIME_SYSTEM":"UTC","CENTER_NAME":"EARTH","OBJECT_TYPE":"PAYLOAD","FILE":"3279324","LAUNCH_DATE":"2021-09-14","GP_ID":"194330168","CLASSIFICATION_TYPE":"U","EPHEMERIS_TYPE":"0","APOAPSIS":"574.706","REF_FRAME":"TEME","TLE_LINE2":"2 49178  69.9975 136.9312 0003801 283.5365 102.4632 14.98327912  3552","MEAN_MOTION":"14.98327912","BSTAR":"-0.00038768000000","PERIAPSIS":"569.423","RCS_SIZE":"LARGE","ELEMENT_SET_NO":"999","PERIOD":"96.107","OBJECT_ID":"2021-082BA","SEMIMAJOR_AXIS":"6950.199","COUNTRY_CODE":"US","MEAN_ELEMENT_THEORY":"SGP4","NORAD_CAT_ID":"49178","ARG_OF_PERICENTER":"283.5365","SITE":"AFWTR","MEAN_ANOMALY":"102.4632","REV_AT_EPOCH":"355"},{"TLE_LINE2":"2 49179  70.0002 122.8901 0004380 290.4330 350.5539 15.69719829  3695","REF_FRAME":"TEME","APOAPSIS":"362.652","BSTAR":"0.00033758000000","MEAN_MOTION":"15.69719829","RCS_SIZE":"LARGE","PERIAPSIS":"356.749","PERIOD":"91.736","ELEMENT_SET_NO":"999","EPHEMERIS_TYPE":"0","CLASSIFICATION_TYPE":"U","GP_ID":"194330922","COUNTRY_CODE":"US","MEAN_ELEMENT_THEORY":"SGP4","ARG_OF_PERICENTER":"290.4330","NORAD_CAT_ID":"49179","MEAN_ANOMALY":"350.5539","SITE":"AFWTR","REV_AT_EPOCH":"369","OBJECT_ID":"2021-082BB","SEMIMAJOR_AXIS":"6737.836","MEAN_MOTION_DOT":"0.00040239","EPOCH":"2022-01-21T14:00:01.000224","OBJECT_NAME":"STARLINK-3043","INCLINATION":"70.0002","DECAY_DATE":null,"TIME_SYSTEM":"UTC","FILE":"3279324","LAUNCH_DATE":"2021-09-14","OBJECT_TYPE":"PAYLOAD","CENTER_NAME":"EARTH","ECCENTRICITY":"0.00043800","MEAN_MOTION_DDOT":"0.0000000000000","TLE_LINE1":"1 49179U 21082BB  22021.58334491  .00040239  00000-0  33758-3 0  9994","RA_OF_ASC_NODE":"122.8901"},{"OBJECT_ID":"2021-082BC","SEMIMAJOR_AXIS":"6740.173","MEAN_ANOMALY":"353.5374","SITE":"AFWTR","COUNTRY_CODE":"US","ARG_OF_PERICENTER":"292.7764","MEAN_ELEMENT_THEORY":"SGP4","NORAD_CAT_ID":"49180","REV_AT_EPOCH":"369","EPHEMERIS_TYPE":"0","GP_ID":"194331672","CLASSIFICATION_TYPE":"U","BSTAR":"-0.00618550000000","MEAN_MOTION":"15.68903471","TLE_LINE2":"2 49180  70.0001 122.8912 0003885 292.7764 353.5374 15.68903471  3690","APOAPSIS":"364.656","REF_FRAME":"TEME","PERIOD":"91.784","ELEMENT_SET_NO":"999","RCS_SIZE":"LARGE","PERIAPSIS":"359.419","RA_OF_ASC_NODE":"122.8912","TLE_LINE1":"1 49180U 21082BC  22021.58334491 -.00659921  00000-0 -61855-2 0  9990","ECCENTRICITY":"0.00038850","MEAN_MOTION_DDOT":"0.0000000000000","INCLINATION":"70.0001","DECAY_DATE":null,"LAUNCH_DATE":"2021-09-14","FILE":"3279324","OBJECT_TYPE":"PAYLOAD","CENTER_NAME":"EARTH","TIME_SYSTEM":"UTC","MEAN_MOTION_DOT":"-0.00659921","EPOCH":"2022-01-21T14:00:01.000224","OBJECT_NAME":"STARLINK-3050"},{"DECAY_DATE":null,"INCLINATION":"70.0015","TIME_SYSTEM":"UTC","FILE":"3279324","LAUNCH_DATE":"2021-09-14","CENTER_NAME":"EARTH","OBJECT_TYPE":"PAYLOAD","ECCENTRICITY":"0.00033020","MEAN_MOTION_DDOT":"0.0000000000000","RA_OF_ASC_NODE":"136.9260","TLE_LINE1":"1 49181U 21082BD  22021.58334491 -.00001268  00000-0 -98513-4 0  9999","MEAN_MOTION_DOT":"-0.00001268","EPOCH":"2022-01-21T14:00:01.000224","OBJECT_NAME":"STARLINK-3059","MEAN_ELEMENT_THEORY":"SGP4","COUNTRY_CODE":"US","NORAD_CAT_ID":"49181","ARG_OF_PERICENTER":"274.9533","MEAN_ANOMALY":"213.9008","SITE":"AFWTR","REV_AT_EPOCH":"358","SEMIMAJOR_AXIS":"6950.245","OBJECT_ID":"2021-082BD","TLE_LINE2":"2 49181  70.0015 136.9260 0003302 274.9533 213.9008 14.98313306  3583","APOAPSIS":"574.404","REF_FRAME":"TEME","BSTAR":"-0.00009851300000","MEAN_MOTION":"14.98313306","PERIAPSIS":"569.815","RCS_SIZE":"LARGE","PERIOD":"96.108","ELEMENT_SET_NO":"999","EPHEMERIS_TYPE":"0","GP_ID":"194329923","CLASSIFICATION_TYPE":"U"}];
